DUBAISAT-1              
1 35682U 09041B   26201.93656799  .00000497  00000+0  81140-4 0  9990
2 35682  98.0092 334.8328 0009496 329.0219  31.0428 14.75172251910079
OCEANSAT-2              
1 35931U 09051A   26201.94100200  .00000083  00000+0  82160-4 0  9994
2 35931  98.2325 185.4224 0017685 137.0415 223.2136 13.99656341884057
WORLDVIEW-2 (WV-2)      
1 35946U 09055A   26201.91293029  .00000057  00000+0  33445-4 0  9996
2 35946  98.4751 274.9033 0005492 116.2687 243.9065 14.37908005880497
SMOS                    
1 36036U 09059A   26201.13071554  .00000130  00000+0  55402-4 0  9991
2 36036  98.4431  27.9829 0001199  97.7912 262.3413 14.39737721878199
YAOGAN-7                
1 36110U 09069A   26201.93813353  .00000238  00000+0  40137-4 0  9992
2 36110  98.0025  87.5898 0023226 291.9372  67.9370 14.78038734894615
TANDEM-X                
1 36605U 10030A   26201.45521463  .00000100  00000+0  79367-5 0  9992
2 36605  97.4460 208.6898 0001899  95.3384 264.8068 15.19149380891690
CARTOSAT-2B             
1 36795U 10035A   26201.97207935  .00000389  00000+0  60156-4 0  9993
2 36795  97.9931 252.3019 0012752  83.5336 276.7327 14.78654543864848
YAOGAN-10               
1 36834U 10038A   26201.97078141  .00001080  00000+0  13161-3 0  9997
2 36834  97.8971 225.1059 0001597  85.3555   4.4706 14.85439572862223
COSMO-SKYMED 4          
1 37216U 10060A   26201.92899284  .00000398  00000+0  56619-4 0  9998
2 37216  97.8901  25.0408 0001512  86.9803 273.1583 14.82151284849564
RESOURCESAT-2           
1 37387U 11015A   26201.87278796  .00000028  00000+0  32799-4 0  9994
2 37387  98.7627 269.0788 0011879 155.4126 204.7619 14.21600409790966
HAIYANG-2A              
1 37781U 11043A   26201.97690975 -.00000099  00000+0 -60039-4 0  9999
2 37781  99.3406 203.8737 0001763  18.1629 341.9582 13.73154239751297
RASAT                   
1 37791U 11044D   26201.92229127  .00000349  00000+0  68840-4 0  9997
2 37791  98.0576 292.8050 0021983  85.7841  25.5823 14.68196329798138
SRMSAT                  
1 37841U 11058D   26201.36756309  .00000330  00000+0  35428-4 0  9999
2 37841  19.9702 218.6370 0011604 208.2906 179.8338 14.11581727762516
PLEIADES 1A             
1 38012U 11076F   26201.95617080  .00000006  00000+0  11037-4 0  9997
2 38012  98.1961 276.6031 0001604  77.3304  35.1699 14.58548101776910
ZIYUAN 1-02C (ZY 1-02C) 
1 38038U 11079A   26201.97779663  .00000063  00000+0  34901-4 0  9994
2 38038  98.4052 268.5779 0006005 195.4340 337.7981 14.38237911764063
ARIRANG-3 (KOMPSAT-3)   
1 38338U 12025B   26201.97394024  .00000273  00000+0  63401-4 0  9993
2 38338  98.1189 158.8551 0005859  22.9501 337.1961 14.62232217756280
EXACTVIEW-1 (ADS-1B)    
1 38709U 12039C   26201.87400145  .00000051  00000+0  41697-4 0  9998
2 38709  98.9810 320.0303 0011885  76.6312 283.6191 14.24993201727509
SPOT 6                  
1 38755U 12047A   26201.95016137 -.00000120  00000+0 -15956-4 0  9999
2 38755  98.2099 268.8608 0001127  92.6384 267.4944 14.58539499737974
PLEIADES 1B             
1 39019U 12068A   26201.90017331 -.00000111  00000+0 -13959-4 0  9999
2 39019  98.1931 276.4852 0001484  77.5676 282.5689 14.58535158725766
GOKTURK 2               
1 39030U 12073A   26201.91912896  .00000586  00000+0  92824-4 0  9991
2 39030  97.6815  37.6582 0001071 103.2053 256.9277 14.75572371729487
LANDSAT 8               
1 39084U 13008A   26201.87901961  .00000172  00000+0  48277-4 0  9999
2 39084  98.2285 271.6113 0001341  91.7675 268.3677 14.57096671702807
SARAL                   
1 39086U 13009A   26201.90827775  .00000034  00000+0  28462-4 0  9997
2 39086  98.5560  28.0494 0002034 153.6074 206.5215 14.32896690700436
GAOFEN-1                
1 39150U 13018A   26201.94690615 -.00000252  00000+0 -28777-4 0  9997
2 39150  97.9077 273.3261 0017577 153.0781 207.1345 14.76520117713226
VNREDSAT 1              
1 39160U 13021B   26201.96893780  .00000060  00000+0  19711-4 0  9995
2 39160  97.9057 254.0858 0001544  81.9613 278.1765 14.64886352705232
SKYSAT-A                
1 39418U 13066C   26201.85301229  .00001789  00000+0  10409-3 0  9993
2 39418  97.3797 250.1772 0021001 193.2622 166.8060 15.13134696693578
DUBAISAT-2              
1 39419U 13066D   26201.92649615  .00001884  00000+0  11844-3 0  9996
2 39419  97.4585 191.1949 0009249 278.9763  81.0419 15.10394433691480
GPM-CORE                
1 39574U 14009C   26201.93626899  .00004310  00000+0  95915-4 0  9995
2 39574  64.9698 195.0439 0010865 263.7119  96.2784 15.45085998703024
SENTINEL-1A             
1 39634U 14016A   26201.96754328 -.00000021  00000+0  52623-5 0  9998
2 39634  98.1737 209.0049 0001433  84.6678 275.4685 14.59173566654948
KAZEOSAT 1              
1 39731U 14024A   26201.95125046 -.00000046  00000+0 -11631-5 0  9995
2 39731  98.3189 273.5557 0001199  87.5653 272.5675 14.42038114643422
