OBJECT_NAME,OBJECT_ID,EPOCH,MEAN_MOTION,ECCENTRICITY,INCLINATION,RA_OF_ASC_NODE,ARG_OF_PERICENTER,MEAN_ANOMALY,EPHEMERIS_TYPE,CLASSIFICATION_TYPE,NORAD_CAT_ID,ELEMENT_SET_NO,REV_AT_EPOCH,BSTAR,MEAN_MOTION_DOT,MEAN_MOTION_DDOT
DUBAISAT-1,2009-041B,2026-07-20T22:28:39.474336,14.75172251,.00094965,98.0092,334.8328,329.0219,31.0428,0,U,35682,999,91007,.81139521E-4,.497E-5,0
OCEANSAT-2,2009-051A,2026-07-20T22:35:02.572800,13.99656341,.00176856,98.2325,185.4224,137.0415,223.2136,0,U,35931,999,88405,.82159882E-4,.83E-6,0
WORLDVIEW-2 (WV-2),2009-055A,2026-07-20T21:54:37.177056,14.37908005,.00054921,98.4751,274.9033,116.2687,243.9065,0,U,35946,999,88049,.3344486E-4,.57E-6,0
SMOS,2009-059A,2026-07-20T03:08:13.822656,14.39737721,.00011995,98.4431,27.9829,97.7912,262.3413,0,U,36036,999,87819,.55402252E-4,.13E-5,0
YAOGAN-7,2009-069A,2026-07-20T22:30:54.736992,14.78038734,.00232268,98.0025,87.5898,291.9372,67.9370,0,U,36110,999,89461,.40137177E-4,.238E-5,0
TANDEM-X,2010-030A,2026-07-20T10:55:30.544032,15.19149380,.00018995,97.4460,208.6898,95.3384,264.8068,0,U,36605,999,89169,.7936673E-5,.1E-5,0
CARTOSAT-2B,2010-035A,2026-07-20T23:19:47.655840,14.78654543,.00127527,97.9931,252.3019,83.5336,276.7327,0,U,36795,999,86484,.60155801E-4,.389E-5,0
YAOGAN-10,2010-038A,2026-07-20T23:17:55.513824,14.85439572,.00015975,97.8971,225.1059,85.3555,4.4706,0,U,36834,999,86222,.13160543E-3,.108E-4,0
COSMO-SKYMED 4,2010-060A,2026-07-20T22:17:44.981376,14.82151284,.00015121,97.8901,25.0408,86.9803,273.1583,0,U,37216,999,84956,.56619049E-4,.398E-5,0
RESOURCESAT-2,2011-015A,2026-07-20T20:56:48.879744,14.21600409,.00118794,98.7627,269.0788,155.4126,204.7619,0,U,37387,999,79096,.32799188E-4,.28E-6,0
HAIYANG-2A,2011-043A,2026-07-20T23:26:45.002400,13.73154239,.00017631,99.3406,203.8737,18.1629,341.9582,0,U,37781,999,75129,-.60038803E-4,-.99E-6,0
RASAT,2011-044D,2026-07-20T22:08:05.965728,14.68196329,.00219831,98.0576,292.8050,85.7841,25.5823,0,U,37791,999,79813,.68840157E-4,.349E-5,0
SRMSAT,2011-058D,2026-07-20T08:49:17.450976,14.11581727,.00116043,19.9702,218.6370,208.2906,179.8338,0,U,37841,999,76251,.35427981E-4,.33E-5,0
PLEIADES 1A,2011-076F,2026-07-20T22:56:53.157120,14.58548101,.00016043,98.1961,276.6031,77.3304,35.1699,0,U,38012,999,77691,.11036602E-4,.6E-7,0
ZIYUAN 1-02C (ZY 1-02C),2011-079A,2026-07-20T23:28:01.628832,14.38237911,.00060056,98.4052,268.5779,195.4340,337.7981,0,U,38038,999,76406,.34900544E-4,.63E-6,0
ARIRANG-3 (KOMPSAT-3),2012-025B,2026-07-20T23:22:28.436736,14.62232217,.00058597,98.1189,158.8551,22.9501,337.1961,0,U,38338,999,75628,.63400537E-4,.273E-5,0
EXACTVIEW-1 (ADS-1B),2012-039C,2026-07-20T20:58:33.725280,14.24993201,.00118853,98.9810,320.0303,76.6312,283.6191,0,U,38709,999,72750,.41696733E-4,.51E-6,0
SPOT 6,2012-047A,2026-07-20T22:48:13.942368,14.58539499,.0001127,98.2099,268.8608,92.6384,267.4944,0,U,38755,999,73797,-.15955986E-4,-.12E-5,0
PLEIADES 1B,2012-068A,2026-07-20T21:36:14.973984,14.58535158,.00014844,98.1931,276.4852,77.5676,282.5689,0,U,39019,999,72576,-.13959085E-4,-.111E-5,0
GOKTURK 2,2012-073A,2026-07-20T22:03:32.742144,14.75572371,.00010719,97.6815,37.6582,103.2053,256.9277,0,U,39030,999,72948,.92824194E-4,.586E-5,0
LANDSAT 8,2013-008A,2026-07-20T21:05:47.294304,14.57096671,.00013414,98.2285,271.6113,91.7675,268.3677,0,U,39084,999,70280,.48277223E-4,.172E-5,0
SARAL,2013-009A,2026-07-20T21:47:55.197600,14.32896690,.00020348,98.5560,28.0494,153.6074,206.5215,0,U,39086,999,70043,.28462177E-4,.34E-6,0
GAOFEN-1,2013-018A,2026-07-20T22:43:32.691360,14.76520117,.00175774,97.9077,273.3261,153.0781,207.1345,0,U,39150,999,71322,-.28776537E-4,-.252E-5,0
VNREDSAT 1,2013-021B,2026-07-20T23:15:16.225920,14.64886352,.00015443,97.9057,254.0858,81.9613,278.1765,0,U,39160,999,70523,.19710687E-4,.6E-6,0
SKYSAT-A,2013-066C,2026-07-20T20:28:20.261856,15.13134696,.00210011,97.3797,250.1772,193.2622,166.8060,0,U,39418,999,69357,.10409283E-3,.1789E-4,0
DUBAISAT-2,2013-066D,2026-07-20T22:14:09.267360,15.10394433,.00092497,97.4585,191.1949,278.9763,81.0419,0,U,39419,999,69148,.1184445E-3,.1884E-4,0
GPM-CORE,2014-009C,2026-07-20T22:28:13.640736,15.45085998,.00108656,64.9698,195.0439,263.7119,96.2784,0,U,39574,999,70302,.95914685E-4,.431E-4,0
SENTINEL-1A,2014-016A,2026-07-20T23:13:15.739392,14.59173566,.00014337,98.1737,209.0049,84.6678,275.4685,0,U,39634,999,65494,.5262272E-5,-.21E-6,0
KAZEOSAT 1,2014-024A,2026-07-20T22:49:48.039744,14.42038114,.00011993,98.3189,273.5557,87.5653,272.5675,0,U,39731,999,64342,-.11631E-5,-.46E-6,0
